OBJECT_NAME,OBJECT_ID,EPOCH,MEAN_MOTION,ECCENTRICITY,INCLINATION,RA_OF_ASC_NODE,ARG_OF_PERICENTER,MEAN_ANOMALY,EPHEMERIS_TYPE,CLASSIFICATION_TYPE,NORAD_CAT_ID,ELEMENT_SET_NO,REV_AT_EPOCH,BSTAR,MEAN_MOTION_DOT,MEAN_MOTION_DDOT
IONOSFERA-M 2,2024-199B,2026-07-22T21:11:45.921696,14.22763514,.00008129,98.7124,76.5810,131.3509,228.7739,0,U,61736,999,13590,.31470552E-4,.27E-6,0
PRSC-EO1,2025-012A,2026-07-22T22:15:11.770848,15.17692237,.0007281,97.4210,275.6847,124.8098,235.3822,0,U,62725,999,8361,.37822659E-3,.7563E-4,0
BIOMASS,2025-090A,2026-07-22T01:57:56.209248,14.67536612,.00014651,98.0754,29.8887,88.6377,271.4995,0,U,63772,999,6580,.11542485E-3,.607E-5,0
GOSAT-GW (IBUKI GW),2025-141A,2026-07-22T22:00:48.793824,14.67556318,.00014363,98.0563,140.6540,88.4914,271.6455,0,U,64694,999,5708,.13834321E-4,.31E-6,0
IONOSFERA-M 3,2025-155A,2026-07-22T22:23:17.509920,14.21491886,.0002453,98.6046,164.9423,100.5619,259.5835,0,U,64876,999,5148,.41730643E-4,.48E-6,0
IONOSFERA-M 4,2025-155B,2026-07-22T21:32:00.923424,14.21494269,.00019017,98.6045,164.8246,91.8308,268.3088,0,U,64877,999,5147,.38943444E-4,.42E-6,0
MICROCARB,2025-156A,2026-07-22T04:59:39.221376,14.72890768,.00181443,98.0069,279.8115,149.0641,211.1639,0,U,64899,999,5312,.74589613E-4,.429E-5,0
CO3D 3,2025-156B,2026-07-22T20:43:33.385440,15.20210739,.00017214,97.4334,282.0439,88.8378,271.3054,0,U,64900,999,5495,.18239812E-3,.3884E-4,0
CO3D 4,2025-156C,2026-07-22T20:43:46.858656,15.20211163,.00021168,97.4333,282.0439,138.8395,221.3001,0,U,64901,999,5495,.19343575E-3,.4123E-4,0
CO3D 2,2025-156D,2026-07-22T21:30:32.704704,15.20210019,.00011758,97.4334,281.9747,92.5086,267.6284,0,U,64902,999,5495,.2088175E-3,.4457E-4,0
CO3D 1,2025-156E,2026-07-22T21:30:46.004256,15.20197383,.00013458,97.4333,281.9749,99.0943,261.0444,0,U,64903,999,5495,.22586348E-3,.4824E-4,0
PRSC-S1,2025-164A,2026-07-22T22:17:40.150752,15.06685639,.00077119,41.1303,86.4749,243.8107,116.1914,0,U,65055,999,5382,.35663011E-3,.5217E-4,0
SENTINEL-6B,2025-264A,2026-07-22T20:16:14.089728,12.80930304,.00078305,66.0410,61.1180,268.4456,91.5662,0,U,66514,999,3173,.3184876E-5,-.6E-6,0
CAS500-3,2025-274F,2026-07-22T07:24:55.869408,14.88395594,.00056935,97.7433,130.5612,17.9033,342.2384,0,U,66655,999,3537,.10772186E-3,.945E-5,0
CSG-3,2026-001A,2026-07-22T18:38:59.472672,14.82167076,.00014559,97.8899,26.8655,92.7211,267.4168,0,U,67304,999,2973,.36977856E-4,.242E-5,0
PRSC-E03,2026-092A,2026-07-22T12:15:43.682400,15.06830155,.00049112,38.0000,241.3573,296.2140,63.8116,0,U,68835,999,1328,.11368782E-3,.1617E-4,0
CAS500-2,2026-100AK,2026-07-22T07:00:52.686144,15.20173235,.00077094,97.3842,100.4676,234.0961,125.9559,0,U,69013,999,1214,.26272093E-3,.5623E-4,0
